LEMUR-2-FURIAUS         
1 42840U 17042R   26068.96143223  .00025928  00000+0  99966-3 0  9991
2 42840  97.3753 248.4990 0007537  55.8686 304.3266 15.26272951473053
STARLINK-31477          
1 59314U 24056U   26068.50990698 -.00001210  00000+0 -34475-4 0  9999
2 59314  43.0032 224.2127 0001380 259.8227 100.2469 15.27571549111217
